NORAD_CAT_ID,OBJECT_NAME,OBJECT_TYPE,EPOCH,MEAN_MOTION,ECCENTRICITY,INCLINATION,RA_OF_ASC_NODE,ARG_OF_PERICENTER,MEAN_ANOMALY,BSTAR,MEAN_MOTION_DOT,MEAN_MOTION_DDOT,TLE_LINE0,TLE_LINE1,TLE_LINE2,SEMIMAJOR_AXIS,PERIOD,APOGEE,PERIGEE,DECAYED
52455.0,STARLINK-3890,PAYLOAD,2022-08-25 14:00:01,15.08811783,0.0001556,53.2173,109.5999,77.5407,67.0398,0.0021561999999999,0.00034168,0.0,0 STARLINK-3890,1 52455U 22049E   22237.58334491  .00034168  00000-0  21562-2 0  9991,2 52455  53.2173 109.5999 0001556  77.5407  67.0398 15.08811783  1302,6917.967,95.439,540.908,538.755,0.0
52455.0,STARLINK-3890,PAYLOAD,2022-08-25 22:00:00,15.08832283,0.0001654,53.2171,108.1053,71.244,84.9139,-0.00090229,-0.00014616,0.0,0 STARLINK-3890,1 52455U 22049E   22237.91667824 -.00014616  00000-0 -90229-3 0  9992,2 52455  53.2171 108.1053 0001654  71.2440  84.9139 15.08832283  1302,6917.904,95.438,540.913,538.625,0.0
52455.0,STARLINK-3890,PAYLOAD,2022-08-26 14:00:01,15.08823504,0.0001608,53.2167,105.1109,78.6484,100.7416,0.0018945999999999,0.0002998,0.0,0 STARLINK-3890,1 52455U 22049E   22238.58335648  .00029980  00000-0  18946-2 0  9995,2 52455  53.2167 105.1109 0001608  78.6484 100.7416 15.08823504 17368,6917.931,95.439,540.908,538.683,0.0
52455.0,STARLINK-3890,PAYLOAD,2022-08-26 22:00:00,15.08837626,0.0001704,53.2166,103.6163,71.5692,119.3481,-0.00046161,-7.627e-05,0.0,0 STARLINK-3890,1 52455U 22049E   22238.91667824 -.00007627  00000-0 -46161-3 0  9993,2 52455  53.2166 103.6163 0001704  71.5692 119.3481 15.08837626  1305,6917.888000000001,95.438,540.931,538.5740000000002,0.0
52455.0,STARLINK-3890,PAYLOAD,2022-08-27 14:00:01,15.08837622,0.0001663,53.2165,100.6216,78.5808,135.5291,0.0018401,0.00029117,0.0,0 STARLINK-3890,1 52455U 22049E   22239.58334491  .00029117  00000-0  18401-2 0  9999,2 52455  53.2165 100.6216 0001663  78.5808 135.5291 15.08837622  1305,6917.888000000001,95.438,540.903,538.602,0.0
52455.0,STARLINK-3890,PAYLOAD,2022-08-27 22:00:00,15.0884811,0.0001766,53.2164,99.1269,70.9511,154.7657,8.7182e-05,1.1e-05,0.0,0 STARLINK-3890,1 52455U 22049E   22239.91667824  .00001100  00000-0  87182-4 0  9991,2 52455  53.2164  99.1269 0001766  70.9511 154.7657 15.08848110  1308,6917.856,95.437,540.942,538.499,0.0
52455.0,STARLINK-3890,PAYLOAD,2022-08-28 06:00:00,15.08877765,0.0001675,53.2164,97.6296,71.14699999999998,166.1725,-0.0023805,-0.00038013,0.0,0 STARLINK-3890,1 52455U 22049E   22240.25001157 -.00038013  00000-0 -23805-2 0  9996,2 52455  53.2164  97.6296 0001675  71.1470 166.1725 15.08877765 17619,6917.765,95.435,540.789,538.471,0.0
52455.0,STARLINK-3890,PAYLOAD,2022-08-28 14:00:01,15.08850007,0.000164,53.2166,96.132,77.7124,171.2336,-0.00012934,-2.347e-05,0.0,0 STARLINK-3890,1 52455U 22049E   22240.58334491 -.00002347  00000-0 -12934-3 0  9995,2 52455  53.2166  96.1320 0001640  77.7124 171.2336 15.08850007  1307,6917.85,95.437,540.849,538.58,0.0
52455.0,STARLINK-3890,PAYLOAD,2022-08-28 22:00:00,15.08835632,0.0001706,53.2166,94.6373,69.0872,191.4666,0.00051792,7.963e-05,0.0,0 STARLINK-3890,1 52455U 22049E   22240.91667824  .00007963  00000-0  51792-3 0  9993,2 52455  53.2166  94.6373 0001706  69.0872 191.4666 15.08835632  1302,6917.894,95.438,540.939,538.5790000000002,0.0
52455.0,STARLINK-3890,PAYLOAD,2022-08-29 06:00:02,15.08872555,0.000157,53.2168,93.1399,69.8745,202.3275,-0.0051065,-0.0008072,0.0,0 STARLINK-3890,1 52455U 22049E   22241.25002315 -.00080720  00000-0 -51065-2 0  9995,2 52455  53.2168  93.1399 0001570  69.8745 202.3275 15.08872555 17762,6917.781,95.435,540.732,538.56,0.0
52455.0,STARLINK-3890,PAYLOAD,2022-08-29 14:00:01,15.08817319,0.0001531999999999,53.2171,91.6425,76.7658,206.975,0.0014513,0.00022871,0.0,0 STARLINK-3890,1 52455U 22049E   22241.58334491  .00022871  00000-0  14513-2 0  9992,2 52455  53.2171  91.6425 0001532  76.7658 206.9750 15.08817319  1305,6917.95,95.439,540.875,538.755,0.0
52455.0,STARLINK-3890,PAYLOAD,2022-08-29 16:00:00,15.08837167,0.0001543,53.2172,91.2689,75.0207,301.6086,-0.00076258,-0.00012403,0.0,0 STARLINK-3890,1 52455U 22049E   22241.66667824 -.00012403  00000-0 -76258-3 0  9997,2 52455  53.2172  91.2689 0001543  75.0207 301.6086 15.08837167 17820,6917.889,95.438,540.821,538.687,0.0
52455.0,STARLINK-3890,PAYLOAD,2022-08-29 22:00:00,15.08820042,0.0001641,53.2171,90.1479,67.92399999999999,227.3986,0.00074242,0.00011541,0.0,0 STARLINK-3890,1 52455U 22049E   22241.91667824  .00011541  00000-0  74242-3 0  9996,2 52455  53.2171  90.1479 0001641  67.9240 227.3986 15.08820042  1303,6917.941,95.439,540.942,538.6709999999998,0.0
52455.0,STARLINK-3890,PAYLOAD,2022-08-30 14:00:01,15.08835476,0.0001538,53.2175,87.1533,77.7759,240.7087,0.0011689,0.00018362,0.0,0 STARLINK-3890,1 52455U 22049E   22242.58334491  .00018362  00000-0  11689-2 0  9994,2 52455  53.2175  87.1533 0001538  77.7759 240.7087 15.08835476  1301,6917.894,95.438,540.823,538.695,0.0
52455.0,STARLINK-3890,PAYLOAD,2022-08-30 22:00:00,15.08831289,0.0001634,53.2175,85.6586,69.0666,261.0169,0.00088343,0.00013796,0.0,0 STARLINK-3890,1 52455U 22049E   22242.91667824  .00013796  00000-0  88343-3 0  9998,2 52455  53.2175  85.6586 0001634  69.0666 261.0169 15.08831289  1305,6917.906999999997,95.438,540.9019999999998,538.6419999999998,0.0
52455.0,STARLINK-3890,PAYLOAD,2022-08-31 14:00:01,15.08865275,0.0001453,53.2177,82.6641,78.7573,274.5207,-0.0020956,-0.00033508,0.0,0 STARLINK-3890,1 52455U 22049E   22243.58334491 -.00033508  00000-0 -20956-2 0  9993,2 52455  53.2177  82.6641 0001453  78.7573 274.5207 15.08865275 18110,6917.803000000001,95.436,540.673,538.663,0.0
52455.0,STARLINK-3890,PAYLOAD,2022-08-31 22:00:00,15.08813516,0.0001476,53.2176,81.1695,68.8257,296.0705,0.0011679,0.00018334,0.0,0 STARLINK-3890,1 52455U 22049E   22243.91667824  .00018334  00000-0  11679-2 0  9999,2 52455  53.2176  81.1695 0001476  68.8257 296.0705 15.08813516  1302,6917.9609999999975,95.439,540.847,538.805,0.0
52455.0,STARLINK-3890,PAYLOAD,2022-09-01 14:00:01,15.08838219,0.0001374,53.2177,78.1753,79.7502,308.3602,9.8119e-05,1.274e-05,0.0,0 STARLINK-3890,1 52455U 22049E   22244.58335648  .00001274  00000-0  98119-4 0  9990,2 52455  53.2177  78.1753 0001374  79.7502 308.3602 15.08838219  1305,6917.886,95.438,540.701,538.8,0.0
52455.0,STARLINK-3890,PAYLOAD,2022-09-01 22:00:00,15.08822274,0.0001456,53.2176,76.6806,70.3216,329.326,0.0015889,0.00025077,0.0,0 STARLINK-3890,1 52455U 22049E   22244.91667824  .00025077  00000-0  15889-2 0  9999,2 52455  53.2176  76.6806 0001456  70.3216 329.3260 15.08822274  1303,6917.935,95.439,540.807,538.7919999999998,0.0
52455.0,STARLINK-3890,PAYLOAD,2022-09-02 14:00:01,15.08852281,0.0001398,53.2175,73.6865,80.2803,342.5428,-0.00037774,-6.297e-05,0.0,0 STARLINK-3890,1 52455U 22049E   22245.58334491 -.00006297  00000-0 -37774-3 0  9997,2 52455  53.2175  73.6865 0001398  80.2803 342.5428 15.08852281  1305,6917.843000000003,95.437,540.675,538.741,0.0
52455.0,STARLINK-3890,PAYLOAD,2022-09-02 22:00:01,15.0883539,0.0001484,53.2174,72.1917,70.7578,3.7385,0.00069967,0.00010863,0.0,0 STARLINK-3890,1 52455U 22049E   22245.91668981  .00010863  00000-0  69967-3 0  9999,2 52455  53.2174  72.1917 0001484  70.7578   3.7385 15.08835390  1305,6917.894,95.438,540.786,538.7330000000002,0.0
52455.0,STARLINK-3890,PAYLOAD,2022-09-03 00:00:00,15.08840194,0.0001483,53.2172,71.8176,69.399,97.9336,8.427e-05,1.053e-05,0.0,0 STARLINK-3890,1 52455U 22049E   22246.00001157  .00001053  00000-0  84270-4 0  9992,2 52455  53.2172  71.8176 0001483  69.3990  97.9336 15.08840194 18483,6917.88,95.438,540.771,538.719,0.0
52455.0,STARLINK-3890,PAYLOAD,2022-09-03 14:00:01,15.08839931,0.0001543,53.2174,69.1976,80.0771,17.5335,-0.00063152,-0.00010325,0.0,0 STARLINK-3890,1 52455U 22049E   22246.58334491 -.00010325  00000-0 -63152-3 0  9994,2 52455  53.2174  69.1976 0001543  80.0771  17.5335 15.08839931  1304,6917.880999999999,95.438,540.813,538.678,0.0
52455.0,STARLINK-3890,PAYLOAD,2022-09-03 22:00:00,15.08813006,0.0001576999999999,53.2175,67.7029,70.8015,38.4074,0.0027128,0.00043119,0.0,0 STARLINK-3890,1 52455U 22049E   22246.91667824  .00043119  00000-0  27128-2 0  9997,2 52455  53.2175  67.7029 0001577  70.8015  38.4074 15.08813006  1300,6917.9630000000025,95.439,540.919,538.737,0.0
52455.0,STARLINK-3890,PAYLOAD,2022-09-04 06:00:00,15.08842149,0.0001493,53.2176,66.205,76.2192,44.5791,0.00014656,2.045e-05,0.0,0 STARLINK-3890,1 52455U 22049E   22247.25001157  .00002045  00000-0  14656-3 0  9992,2 52455  53.2176  66.2050 0001493  76.2192  44.5791 15.08842149 18663,6917.874,95.437,540.7719999999998,538.706,0.0
52455.0,STARLINK-3890,PAYLOAD,2022-09-04 14:00:01,15.08875152,0.000152,53.2174,64.7096,78.0839,54.3676,-0.0047441,-0.00075076,0.0,0 STARLINK-3890,1 52455U 22049E   22247.58335648 -.00075076  00000-0 -47441-2 0  9996,2 52455  53.2174  64.7096 0001520  78.0839  54.3676 15.08875152  1307,6917.773,95.435,540.689,538.586,0.0
52455.0,STARLINK-3890,PAYLOAD,2022-09-04 20:00:01,15.08825718,0.0001530999999999,53.2177,63.5878,69.2351,341.8765,0.0010864,0.00017038,0.0,0 STARLINK-3890,1 52455U 22049E   22247.83334491  .00017038  00000-0  10864-2 0  9990,2 52455  53.2177  63.5878 0001531  69.2351 341.8765 15.08825718  1304,6917.924,95.438,540.8480000000002,538.73,0.0
52455.0,STARLINK-3890,PAYLOAD,2022-09-05 14:00:01,15.08884563,0.0001447,53.2181,60.2197,74.8514,92.3485,-0.0039321,-0.00062401,0.0,0 STARLINK-3890,1 52455U 22049E   22248.58334491 -.00062401  00000-0 -39321-2 0  9998,2 52455  53.2181  60.2197 0001447  74.8514  92.3485 15.08884563 18876,6917.744000000002,95.435,540.61,538.6080000000002,0.0
52455.0,STARLINK-3890,PAYLOAD,2022-09-05 22:00:00,15.08812092,0.0001494,53.2181,58.7247,64.6737,114.1538,0.00091025,0.00014217,0.0,0 STARLINK-3890,1 52455U 22049E   22248.91667824  .00014217  00000-0  91025-3 0  9994,2 52455  53.2181  58.7247 0001494  64.6737 114.1538 15.08812092  1300,6917.965999999999,95.439,540.864,538.797,0.0
